{"type":"FeatureCollection","features":[{"type":"Feature","geometry":{"type":"LineString","coordinates":[[37.63973093,55.69889921],[37.64048102,55.69874701],[37.64071537,55.69846622],[37.64076447,55.69840739]]},"properties":{"id":"v1-seg-1","object_type":"heat_network","variant_id":"1","start_node_id":"v1-ch-1","end_node_id":16,"flow_tph":76.27,"diameter":200,"length":91.888,"laying_method":"base","depth_start":null,"depth_end":null,"cost":1.10518292E7}},{"type":"Feature","geometry":{"type":"LineString","coordinates":[[37.63846184,55.69763853],[37.63811584,55.69771294]]},"properties":{"id":"v1-seg-2","object_type":"heat_network","variant_id":"1","start_node_id":106,"end_node_id":"v1-ch-2","flow_tph":391.82,"diameter":300,"length":23.273,"laying_method":"base","depth_start":null,"depth_end":null,"cost":3491462.01}},{"type":"Feature","geometry":{"type":"LineString","coordinates":[[37.63811584,55.69771294],[37.63825085,55.69791319],[37.6382803,55.69795679]]},"properties":{"id":"v1-seg-3","object_type":"heat_network","variant_id":"1","start_node_id":"v1-ch-2","end_node_id":7,"flow_tph":27.82,"diameter":125,"length":29.043,"laying_method":"base","depth_start":null,"depth_end":null,"cost":2825157.83}},{"type":"Feature","geometry":{"type":"LineString","coordinates":[[37.63811584,55.69771294],[37.63659536,55.6980399]]},"properties":{"id":"v1-seg-4","object_type":"heat_network","variant_id":"1","start_node_id":"v1-ch-2","end_node_id":"v1-ch-3","flow_tph":364.0,"diameter":300,"length":102.27,"laying_method":"base","depth_start":null,"depth_end":null,"cost":1.534274994E7}},{"type":"Feature","geometry":{"type":"LineString","coordinates":[[37.63659536,55.6980399],[37.63522783,55.69833396]]},"properties":{"id":"v1-seg-5","object_type":"heat_network","variant_id":"1","start_node_id":"v1-ch-3","end_node_id":"v1-ch-4","flow_tph":330.86,"diameter":300,"length":91.981,"laying_method":"base","depth_start":null,"depth_end":null,"cost":1.379917358E7}},{"type":"Feature","geometry":{"type":"LineString","coordinates":[[37.63522783,55.69833396],[37.63535827,55.69852745],[37.63541706,55.69861473]]},"properties":{"id":"v1-seg-6","object_type":"heat_network","variant_id":"1","start_node_id":"v1-ch-4","end_node_id":5,"flow_tph":26.09,"diameter":125,"length":33.438,"laying_method":"base","depth_start":null,"depth_end":null,"cost":3252681.45}},{"type":"Feature","geometry":{"type":"LineString","coordinates":[[37.63522783,55.69833396],[37.63491941,55.69840027]]},"properties":{"id":"v1-seg-7","object_type":"heat_network","variant_id":"1","start_node_id":"v1-ch-4","end_node_id":"v1-ch-5","flow_tph":304.77,"diameter":300,"length":20.744,"laying_method":"base","depth_start":null,"depth_end":null,"cost":3112056.37}},{"type":"Feature","geometry":{"type":"LineString","coordinates":[[37.63491941,55.69840027],[37.63439166,55.69761718]]},"properties":{"id":"v1-seg-8","object_type":"heat_network","variant_id":"1","start_node_id":"v1-ch-5","end_node_id":"v1-ch-6","flow_tph":54.3,"diameter":150,"length":93.259,"laying_method":"base","depth_start":null,"depth_end":null,"cost":9839477.31}},{"type":"Feature","geometry":{"type":"LineString","coordinates":[[37.63439166,55.69761718],[37.63428372,55.69745694],[37.6343786,55.69733754],[37.63444627,55.69725239]]},"properties":{"id":"v1-seg-9","object_type":"heat_network","variant_id":"1","start_node_id":"v1-ch-6","end_node_id":9,"flow_tph":34.53,"diameter":125,"length":44.037,"laying_method":"base","depth_start":null,"depth_end":null,"cost":4283699.18}},{"type":"Feature","geometry":{"type":"LineString","coordinates":[[37.63439166,55.69761718],[37.63397788,55.69770613],[37.63390106,55.69772261]]},"properties":{"id":"v1-seg-10","object_type":"heat_network","variant_id":"1","start_node_id":"v1-ch-6","end_node_id":13,"flow_tph":19.77,"diameter":100,"length":32.996,"laying_method":"base","depth_start":null,"depth_end":null,"cost":2961325.01}},{"type":"Feature","geometry":{"type":"LineString","coordinates":[[37.63491941,55.69840027],[37.63597687,55.70004817],[37.63620893,55.7001095],[37.63638185,55.7001552]]},"properties":{"id":"v1-seg-11","object_type":"heat_network","variant_id":"1","start_node_id":"v1-ch-5","end_node_id":4,"flow_tph":47.7,"diameter":150,"length":223.191,"laying_method":"base","depth_start":null,"depth_end":null,"cost":2.354821284E7}},{"type":"Feature","geometry":{"type":"LineString","coordinates":[[37.63491941,55.69840027],[37.63352868,55.69869929]]},"properties":{"id":"v1-seg-12","object_type":"heat_network","variant_id":"1","start_node_id":"v1-ch-5","end_node_id":"v1-ch-7","flow_tph":202.77,"diameter":250,"length":93.54,"laying_method":"base","depth_start":null,"depth_end":null,"cost":1.265811342E7}},{"type":"Feature","geometry":{"type":"LineString","coordinates":[[37.63352868,55.69869929],[37.63283605,55.69766916]]},"properties":{"id":"v1-seg-13","object_type":"heat_network","variant_id":"1","start_node_id":"v1-ch-7","end_node_id":"v1-ch-8","flow_tph":51.62,"diameter":150,"length":122.643,"laying_method":"base","depth_start":null,"depth_end":null,"cost":1.2939695E7}},{"type":"Feature","geometry":{"type":"LineString","coordinates":[[37.63283605,55.69766916],[37.63292615,55.69764984],[37.63375244,55.69747233]]},"properties":{"id":"v1-seg-14","object_type":"heat_network","variant_id":"1","start_node_id":"v1-ch-8","end_node_id":14,"flow_tph":19.73,"diameter":100,"length":61.629,"laying_method":"base","depth_start":null,"depth_end":null,"cost":5531079.49}},{"type":"Feature","geometry":{"type":"LineString","coordinates":[[37.63283605,55.69766916],[37.6324957,55.69716294],[37.63208846,55.69705942],[37.63203444,55.69704569]]},"properties":{"id":"v1-seg-15","object_type":"heat_network","variant_id":"1","start_node_id":"v1-ch-8","end_node_id":15,"flow_tph":31.89,"diameter":125,"length":92.065,"laying_method":"base","depth_start":null,"depth_end":null,"cost":8955622.88}},{"type":"Feature","geometry":{"type":"LineString","coordinates":[[37.63352868,55.69869929],[37.63351044,55.69872024]]},"properties":{"id":"v1-seg-16","object_type":"heat_network","variant_id":"1","start_node_id":"v1-ch-7","end_node_id":"v1-ch-9","flow_tph":111.15,"diameter":200,"length":2.599,"laying_method":"base","depth_start":null,"depth_end":null,"cost":312594.73}},{"type":"Feature","geometry":{"type":"LineString","coordinates":[[37.63351044,55.69872024],[37.63392999,55.69935803],[37.63401877,55.69938101],[37.63400721,55.69939525],[37.6340145,55.69940642],[37.63410445,55.69954403]]},"properties":{"id":"v1-seg-17","object_type":"heat_network","variant_id":"1","start_node_id":"v1-ch-9","end_node_id":"v1-ch-10","flow_tph":47.71,"diameter":150,"length":101.261,"laying_method":"base","depth_start":null,"depth_end":null,"cost":1.068374433E7}},{"type":"Feature","geometry":{"type":"LineString","coordinates":[[37.63410445,55.69954403],[37.63353803,55.69966196],[37.63335762,55.69961496],[37.6332045,55.69957508]]},"properties":{"id":"v1-seg-18","object_type":"heat_network","variant_id":"1","start_node_id":"v1-ch-10","end_node_id":11,"flow_tph":4.08,"diameter":65,"length":61.033,"laying_method":"base","depth_start":null,"depth_end":null,"cost":4799085.82}},{"type":"Feature","geometry":{"type":"LineString","coordinates":[[37.63410445,55.69954403],[37.63419231,55.69952572],[37.6344054,55.69948106]]},"properties":{"id":"v1-seg-19","object_type":"heat_network","variant_id":"1","start_node_id":"v1-ch-10","end_node_id":1,"flow_tph":24.87,"diameter":125,"length":20.174,"laying_method":"base","depth_start":null,"depth_end":null,"cost":1962425.85}},{"type":"Feature","geometry":{"type":"LineString","coordinates":[[37.63410445,55.69954403],[37.63425086,55.69976805],[37.6344042,55.69980795],[37.63458293,55.69985446]]},"properties":{"id":"v1-seg-20","object_type":"heat_network","variant_id":"1","start_node_id":"v1-ch-10","end_node_id":2,"flow_tph":18.76,"diameter":100,"length":49.56,"laying_method":"base","depth_start":null,"depth_end":null,"cost":4447910.88}},{"type":"Feature","geometry":{"type":"LineString","coordinates":[[37.63351044,55.69872024],[37.63274535,55.69886748],[37.63230324,55.69937528],[37.63263674,55.69992797],[37.63269483,55.70002424],[37.63267901,55.70004183]]},"properties":{"id":"v1-seg-21","object_type":"heat_network","variant_id":"1","start_node_id":"v1-ch-9","end_node_id":"v1-ch-11","flow_tph":63.44,"diameter":150,"length":192.293,"laying_method":"base","depth_start":null,"depth_end":null,"cost":2.028825755E7}},{"type":"Feature","geometry":{"type":"LineString","coordinates":[[37.63267901,55.70004183],[37.63270955,55.70005026],[37.63277658,55.70016055],[37.6328466,55.70027576]]},"properties":{"id":"v1-seg-22","object_type":"heat_network","variant_id":"1","start_node_id":"v1-ch-11","end_node_id":3,"flow_tph":29.42,"diameter":125,"length":28.672,"laying_method":"base","depth_start":null,"depth_end":null,"cost":2789068.8}},{"type":"Feature","geometry":{"type":"LineString","coordinates":[[37.63267901,55.70004183],[37.63258081,55.70006007],[37.63238339,55.70028084],[37.63224086,55.70030732],[37.63220263,55.70031442]]},"properties":{"id":"v1-seg-23","object_type":"heat_network","variant_id":"1","start_node_id":"v1-ch-11","end_node_id":8,"flow_tph":18.03,"diameter":100,"length":45.986,"laying_method":"base","depth_start":null,"depth_end":null,"cost":4127151.53}},{"type":"Feature","geometry":{"type":"LineString","coordinates":[[37.63267901,55.70004183],[37.63241568,55.69996951],[37.63205583,55.70003975],[37.63201223,55.70004826]]},"properties":{"id":"v1-seg-24","object_type":"heat_network","variant_id":"1","start_node_id":"v1-ch-11","end_node_id":6,"flow_tph":15.99,"diameter":100,"length":45.237,"laying_method":"base","depth_start":null,"depth_end":null,"cost":4059930.28}},{"type":"Feature","geometry":{"type":"LineString","coordinates":[[37.63352868,55.69869929],[37.63341677,55.69872335],[37.63317055,55.69866098],[37.63313932,55.69865307]]},"properties":{"id":"v1-seg-25","object_type":"heat_network","variant_id":"1","start_node_id":"v1-ch-7","end_node_id":12,"flow_tph":40.0,"diameter":125,"length":26.641,"laying_method":"base","depth_start":null,"depth_end":null,"cost":2591503.28}},{"type":"Feature","geometry":{"type":"LineString","coordinates":[[37.63659536,55.6980399],[37.63652396,55.697934],[37.63609324,55.69729657]]},"properties":{"id":"v1-seg-26","object_type":"heat_network","variant_id":"1","start_node_id":"v1-ch-3","end_node_id":10,"flow_tph":33.14,"diameter":125,"length":88.551,"laying_method":"base","depth_start":null,"depth_end":null,"cost":8613798.53}},{"type":"Feature","geometry":{"type":"LineString","coordinates":[[37.63810674,55.69716155],[37.63889715,55.69698993],[37.63953815,55.69685183]]},"properties":{"id":"v1-seg-27","object_type":"heat_network","variant_id":"1","start_node_id":"v1-ch-12","end_node_id":17,"flow_tph":20.63,"diameter":100,"length":96.357,"laying_method":"base","depth_start":null,"depth_end":null,"cost":8647848.04}},{"type":"Feature","geometry":{"type":"Point","coordinates":[37.63973093,55.69889921]},"properties":{"id":"v1-ch-1","object_type":"heat_chamber","variant_id":"1","diameter":400,"cost":5000000.0}},{"type":"Feature","geometry":{"type":"Point","coordinates":[37.63811584,55.69771294]},"properties":{"id":"v1-ch-2","object_type":"heat_chamber","variant_id":"1","diameter":300,"cost":5000000.0}},{"type":"Feature","geometry":{"type":"Point","coordinates":[37.63659536,55.6980399]},"properties":{"id":"v1-ch-3","object_type":"heat_chamber","variant_id":"1","diameter":300,"cost":5000000.0}},{"type":"Feature","geometry":{"type":"Point","coordinates":[37.63522783,55.69833396]},"properties":{"id":"v1-ch-4","object_type":"heat_chamber","variant_id":"1","diameter":300,"cost":5000000.0}},{"type":"Feature","geometry":{"type":"Point","coordinates":[37.63491941,55.69840027]},"properties":{"id":"v1-ch-5","object_type":"heat_chamber","variant_id":"1","diameter":300,"cost":5000000.0}},{"type":"Feature","geometry":{"type":"Point","coordinates":[37.63439166,55.69761718]},"properties":{"id":"v1-ch-6","object_type":"heat_chamber","variant_id":"1","diameter":150,"cost":3000000.0}},{"type":"Feature","geometry":{"type":"Point","coordinates":[37.63352868,55.69869929]},"properties":{"id":"v1-ch-7","object_type":"heat_chamber","variant_id":"1","diameter":250,"cost":5000000.0}},{"type":"Feature","geometry":{"type":"Point","coordinates":[37.63283605,55.69766916]},"properties":{"id":"v1-ch-8","object_type":"heat_chamber","variant_id":"1","diameter":150,"cost":3000000.0}},{"type":"Feature","geometry":{"type":"Point","coordinates":[37.63351044,55.69872024]},"properties":{"id":"v1-ch-9","object_type":"heat_chamber","variant_id":"1","diameter":200,"cost":3000000.0}},{"type":"Feature","geometry":{"type":"Point","coordinates":[37.63410445,55.69954403]},"properties":{"id":"v1-ch-10","object_type":"heat_chamber","variant_id":"1","diameter":150,"cost":3000000.0}},{"type":"Feature","geometry":{"type":"Point","coordinates":[37.63267901,55.70004183]},"properties":{"id":"v1-ch-11","object_type":"heat_chamber","variant_id":"1","diameter":150,"cost":3000000.0}},{"type":"Feature","geometry":{"type":"Point","coordinates":[37.63810674,55.69716155]},"properties":{"id":"v1-ch-12","object_type":"heat_chamber","variant_id":"1","diameter":400,"cost":5000000.0}},{"type":"Feature","geometry":null,"properties":{"id":"v1-summary","object_type":"variant_summary","variant_id":"1","rank":1,"construction_cost":2.6191565513E8,"chamber_construction_cost":5.0E7,"existing_chamber_tie_in_count":1,"existing_chamber_tie_in_cost":5000000.0,"unconnected_penalty":0.0,"calculated_cost":2.6191565513E8,"new_network_length":1914.361,"score":13.076721,"unconnected_oks_ids":[]}},{"type":"Feature","geometry":{"type":"LineString","coordinates":[[37.63810674,55.69716156],[37.63889716,55.69698993],[37.63953815,55.69685183]]},"properties":{"id":"v2-seg-1","object_type":"heat_network","variant_id":"2","start_node_id":"v2-ch-1","end_node_id":17,"flow_tph":20.63,"diameter":100,"length":96.357,"laying_method":"base","depth_start":null,"depth_end":null,"cost":8647848.04}},{"type":"Feature","geometry":{"type":"LineString","coordinates":[[37.63846184,55.69763853],[37.63811588,55.69771288]]},"properties":{"id":"v2-seg-2","object_type":"heat_network","variant_id":"2","start_node_id":106,"end_node_id":"v2-ch-2","flow_tph":340.16,"diameter":300,"length":23.268,"laying_method":"base","depth_start":null,"depth_end":null,"cost":3490711.9}},{"type":"Feature","geometry":{"type":"LineString","coordinates":[[37.63811588,55.69771288],[37.63659508,55.6980397]]},"properties":{"id":"v2-seg-3","object_type":"heat_network","variant_id":"2","start_node_id":"v2-ch-2","end_node_id":"v2-ch-3","flow_tph":312.34,"diameter":300,"length":102.283,"laying_method":"base","depth_start":null,"depth_end":null,"cost":1.534470023E7}},{"type":"Feature","geometry":{"type":"LineString","coordinates":[[37.63659508,55.6980397],[37.63652388,55.69793402],[37.63609324,55.69729657]]},"properties":{"id":"v2-seg-4","object_type":"heat_network","variant_id":"2","start_node_id":"v2-ch-3","end_node_id":10,"flow_tph":33.14,"diameter":125,"length":88.523,"laying_method":"base","depth_start":null,"depth_end":null,"cost":8611074.82}},{"type":"Feature","geometry":{"type":"LineString","coordinates":[[37.63659508,55.6980397],[37.63522757,55.69833356]]},"properties":{"id":"v2-seg-5","object_type":"heat_network","variant_id":"2","start_node_id":"v2-ch-3","end_node_id":"v2-ch-4","flow_tph":279.2,"diameter":300,"length":91.972,"laying_method":"base","depth_start":null,"depth_end":null,"cost":1.379782338E7}},{"type":"Feature","geometry":{"type":"LineString","coordinates":[[37.63522757,55.69833356],[37.63504857,55.69837202]]},"properties":{"id":"v2-seg-6","object_type":"heat_network","variant_id":"2","start_node_id":"v2-ch-4","end_node_id":"v2-ch-5","flow_tph":253.11,"diameter":250,"length":12.039,"laying_method":"base","depth_start":null,"depth_end":null,"cost":1629153.6}},{"type":"Feature","geometry":{"type":"LineString","coordinates":[[37.63504857,55.69837202],[37.63341417,55.6987228]]},"properties":{"id":"v2-seg-7","object_type":"heat_network","variant_id":"2","start_node_id":"v2-ch-5","end_node_id":"v2-ch-6","flow_tph":198.85,"diameter":250,"length":109.904,"laying_method":"base","depth_start":null,"depth_end":null,"cost":1.487253899E7}},{"type":"Feature","geometry":{"type":"LineString","coordinates":[[37.63341417,55.6987228],[37.63362975,55.69904928],[37.63347494,55.69924069],[37.6336349,55.69948553]]},"properties":{"id":"v2-seg-8","object_type":"heat_network","variant_id":"2","start_node_id":"v2-ch-6","end_node_id":"v2-ch-7","flow_tph":95.41,"diameter":200,"length":91.25,"laying_method":"base","depth_start":null,"depth_end":null,"cost":1.097509375E7}},{"type":"Feature","geometry":{"type":"LineString","coordinates":[[37.6336349,55.69948553],[37.63336942,55.69954084],[37.6332045,55.69957508]]},"properties":{"id":"v2-seg-9","object_type":"heat_network","variant_id":"2","start_node_id":"v2-ch-7","end_node_id":11,"flow_tph":4.08,"diameter":65,"length":28.831,"laying_method":"base","depth_start":null,"depth_end":null,"cost":2267010.36}},{"type":"Feature","geometry":{"type":"LineString","coordinates":[[37.6336349,55.69948553],[37.63373098,55.69963259],[37.63418534,55.69975092]]},"properties":{"id":"v2-seg-10","object_type":"heat_network","variant_id":"2","start_node_id":"v2-ch-7","end_node_id":"v2-ch-8","flow_tph":91.33,"diameter":200,"length":48.898,"laying_method":"base","depth_start":null,"depth_end":null,"cost":5881206.95}},{"type":"Feature","geometry":{"type":"LineString","coordinates":[[37.63418534,55.69975092],[37.63575668,55.69942922],[37.63594829,55.69947984],[37.63638185,55.7001552]]},"properties":{"id":"v2-seg-11","object_type":"heat_network","variant_id":"2","start_node_id":"v2-ch-8","end_node_id":4,"flow_tph":47.7,"diameter":150,"length":198.311,"laying_method":"base","depth_start":null,"depth_end":null,"cost":2.092319868E7}},{"type":"Feature","geometry":{"type":"LineString","coordinates":[[37.63418534,55.69975092],[37.63432663,55.6995779],[37.6344054,55.69948106]]},"properties":{"id":"v2-seg-12","object_type":"heat_network","variant_id":"2","start_node_id":"v2-ch-8","end_node_id":1,"flow_tph":24.87,"diameter":125,"length":33.068,"laying_method":"base","depth_start":null,"depth_end":null,"cost":3216689.7}},{"type":"Feature","geometry":{"type":"LineString","coordinates":[[37.63418534,55.69975092],[37.63440427,55.69980794],[37.63458293,55.69985446]]},"properties":{"id":"v2-seg-13","object_type":"heat_network","variant_id":"2","start_node_id":"v2-ch-8","end_node_id":2,"flow_tph":18.76,"diameter":100,"length":27.52,"laying_method":"base","depth_start":null,"depth_end":null,"cost":2469864.96}},{"type":"Feature","geometry":{"type":"LineString","coordinates":[[37.63341417,55.6987228],[37.63275893,55.69884963],[37.63230143,55.69937743]]},"properties":{"id":"v2-seg-14","object_type":"heat_network","variant_id":"2","start_node_id":"v2-ch-6","end_node_id":"v2-ch-9","flow_tph":63.44,"diameter":150,"length":108.945,"laying_method":"base","depth_start":null,"depth_end":null,"cost":1.149446011E7}},{"type":"Feature","geometry":{"type":"LineString","coordinates":[[37.63230143,55.69937743],[37.63209732,55.69941764],[37.63182179,55.69973991],[37.63201223,55.70004826]]},"properties":{"id":"v2-seg-15","object_type":"heat_network","variant_id":"2","start_node_id":"v2-ch-9","end_node_id":6,"flow_tph":15.99,"diameter":100,"length":89.767,"laying_method":"base","depth_start":null,"depth_end":null,"cost":8056408.72}},{"type":"Feature","geometry":{"type":"LineString","coordinates":[[37.63230143,55.69937743],[37.63198059,55.69973703],[37.6321867,55.70008985],[37.63211705,55.70016791],[37.63218424,55.70028293],[37.63220263,55.70031442]]},"properties":{"id":"v2-seg-16","object_type":"heat_network","variant_id":"2","start_node_id":"v2-ch-9","end_node_id":8,"flow_tph":18.03,"diameter":100,"length":113.069,"laying_method":"base","depth_start":null,"depth_end":null,"cost":1.014771661E7}},{"type":"Feature","geometry":{"type":"LineString","coordinates":[[37.63230143,55.69937743],[37.63277667,55.70016053],[37.6328466,55.70027576]]},"properties":{"id":"v2-seg-17","object_type":"heat_network","variant_id":"2","start_node_id":"v2-ch-9","end_node_id":3,"flow_tph":29.42,"diameter":125,"length":105.694,"laying_method":"base","depth_start":null,"depth_end":null,"cost":1.028138385E7}},{"type":"Feature","geometry":{"type":"LineString","coordinates":[[37.63341417,55.6987228],[37.63317057,55.698661],[37.63313932,55.69865307]]},"properties":{"id":"v2-seg-18","object_type":"heat_network","variant_id":"2","start_node_id":"v2-ch-6","end_node_id":12,"flow_tph":40.0,"diameter":125,"length":18.94,"laying_method":"base","depth_start":null,"depth_end":null,"cost":1842388.5}},{"type":"Feature","geometry":{"type":"LineString","coordinates":[[37.63504857,55.69837202],[37.63486957,55.69832665],[37.63428369,55.69745698]]},"properties":{"id":"v2-seg-19","object_type":"heat_network","variant_id":"2","start_node_id":"v2-ch-5","end_node_id":"v2-ch-10","flow_tph":54.26,"diameter":150,"length":115.898,"laying_method":"base","depth_start":null,"depth_end":null,"cost":1.222805029E7}},{"type":"Feature","geometry":{"type":"LineString","coordinates":[[37.63428369,55.69745698],[37.63407276,55.69740351],[37.63381229,55.69745947],[37.63375244,55.69747233]]},"properties":{"id":"v2-seg-20","object_type":"heat_network","variant_id":"2","start_node_id":"v2-ch-10","end_node_id":14,"flow_tph":19.73,"diameter":100,"length":36.076,"laying_method":"base","depth_start":null,"depth_end":null,"cost":3237748.85}},{"type":"Feature","geometry":{"type":"LineString","coordinates":[[37.63428369,55.69745698],[37.6343786,55.69733754],[37.63444627,55.69725239]]},"properties":{"id":"v2-seg-21","object_type":"heat_network","variant_id":"2","start_node_id":"v2-ch-10","end_node_id":9,"flow_tph":34.53,"diameter":125,"length":24.959,"laying_method":"base","depth_start":null,"depth_end":null,"cost":2427886.73}},{"type":"Feature","geometry":{"type":"LineString","coordinates":[[37.63522757,55.69833356],[37.63535821,55.69852746],[37.63541706,55.69861473]]},"properties":{"id":"v2-seg-22","object_type":"heat_network","variant_id":"2","start_node_id":"v2-ch-4","end_node_id":5,"flow_tph":26.09,"diameter":125,"length":33.485,"laying_method":"base","depth_start":null,"depth_end":null,"cost":3257253.38}},{"type":"Feature","geometry":{"type":"LineString","coordinates":[[37.63811588,55.69771288],[37.63825085,55.69791319],[37.6382803,55.69795679]]},"properties":{"id":"v2-seg-23","object_type":"heat_network","variant_id":"2","start_node_id":"v2-ch-2","end_node_id":7,"flow_tph":27.82,"diameter":125,"length":29.048,"laying_method":"base","depth_start":null,"depth_end":null,"cost":2825644.2}},{"type":"Feature","geometry":{"type":"LineString","coordinates":[[37.636617,55.69505751],[37.63244352,55.69595423],[37.63203031,55.69647415],[37.63231768,55.69690083],[37.63236718,55.6969735]]},"properties":{"id":"v2-seg-24","object_type":"heat_network","variant_id":"2","start_node_id":"v2-ch-11","end_node_id":"v2-ch-12","flow_tph":51.66,"diameter":150,"length":403.607,"laying_method":"base","depth_start":null,"depth_end":null,"cost":4.258336375E7}},{"type":"Feature","geometry":{"type":"LineString","coordinates":[[37.63236718,55.6969735],[37.6320738,55.69703725],[37.63203444,55.69704569]]},"properties":{"id":"v2-seg-25","object_type":"heat_network","variant_id":"2","start_node_id":"v2-ch-12","end_node_id":15,"flow_tph":31.89,"diameter":125,"length":22.407,"laying_method":"base","depth_start":null,"depth_end":null,"cost":2179640.92}},{"type":"Feature","geometry":{"type":"LineString","coordinates":[[37.63236718,55.6969735],[37.63287411,55.69771763],[37.63341934,55.6976005],[37.63383503,55.69770587],[37.63390106,55.69772261]]},"properties":{"id":"v2-seg-26","object_type":"heat_network","variant_id":"2","start_node_id":"v2-ch-12","end_node_id":13,"flow_tph":19.77,"diameter":100,"length":158.602,"laying_method":"base","depth_start":null,"depth_end":null,"cost":1.42342123E7}},{"type":"Feature","geometry":{"type":"LineString","coordinates":[[37.63973093,55.69889921],[37.64048102,55.69874701],[37.64071537,55.69846622],[37.64076447,55.69840739]]},"properties":{"id":"v2-seg-27","object_type":"heat_network","variant_id":"2","start_node_id":"v2-ch-13","end_node_id":16,"flow_tph":76.27,"diameter":200,"length":91.888,"laying_method":"base","depth_start":null,"depth_end":null,"cost":1.10518292E7}},{"type":"Feature","geometry":{"type":"Point","coordinates":[37.63810674,55.69716156]},"properties":{"id":"v2-ch-1","object_type":"heat_chamber","variant_id":"2","diameter":400,"cost":5000000.0}},{"type":"Feature","geometry":{"type":"Point","coordinates":[37.63811588,55.69771288]},"properties":{"id":"v2-ch-2","object_type":"heat_chamber","variant_id":"2","diameter":300,"cost":5000000.0}},{"type":"Feature","geometry":{"type":"Point","coordinates":[37.63659508,55.6980397]},"properties":{"id":"v2-ch-3","object_type":"heat_chamber","variant_id":"2","diameter":300,"cost":5000000.0}},{"type":"Feature","geometry":{"type":"Point","coordinates":[37.63522757,55.69833356]},"properties":{"id":"v2-ch-4","object_type":"heat_chamber","variant_id":"2","diameter":300,"cost":5000000.0}},{"type":"Feature","geometry":{"type":"Point","coordinates":[37.63504857,55.69837202]},"properties":{"id":"v2-ch-5","object_type":"heat_chamber","variant_id":"2","diameter":250,"cost":5000000.0}},{"type":"Feature","geometry":{"type":"Point","coordinates":[37.63341417,55.6987228]},"properties":{"id":"v2-ch-6","object_type":"heat_chamber","variant_id":"2","diameter":250,"cost":5000000.0}},{"type":"Feature","geometry":{"type":"Point","coordinates":[37.6336349,55.69948553]},"properties":{"id":"v2-ch-7","object_type":"heat_chamber","variant_id":"2","diameter":200,"cost":3000000.0}},{"type":"Feature","geometry":{"type":"Point","coordinates":[37.63418534,55.69975092]},"properties":{"id":"v2-ch-8","object_type":"heat_chamber","variant_id":"2","diameter":200,"cost":3000000.0}},{"type":"Feature","geometry":{"type":"Point","coordinates":[37.63230143,55.69937743]},"properties":{"id":"v2-ch-9","object_type":"heat_chamber","variant_id":"2","diameter":150,"cost":3000000.0}},{"type":"Feature","geometry":{"type":"Point","coordinates":[37.63428369,55.69745698]},"properties":{"id":"v2-ch-10","object_type":"heat_chamber","variant_id":"2","diameter":150,"cost":3000000.0}},{"type":"Feature","geometry":{"type":"Point","coordinates":[37.636617,55.69505751]},"properties":{"id":"v2-ch-11","object_type":"heat_chamber","variant_id":"2","diameter":400,"cost":5000000.0}},{"type":"Feature","geometry":{"type":"Point","coordinates":[37.63236718,55.6969735]},"properties":{"id":"v2-ch-12","object_type":"heat_chamber","variant_id":"2","diameter":150,"cost":3000000.0}},{"type":"Feature","geometry":{"type":"Point","coordinates":[37.63973093,55.69889921]},"properties":{"id":"v2-ch-13","object_type":"heat_chamber","variant_id":"2","diameter":400,"cost":5000000.0}},{"type":"Feature","geometry":null,"properties":{"id":"v2-summary","object_type":"variant_summary","variant_id":"2","rank":2,"construction_cost":3.0797490277E8,"chamber_construction_cost":5.5E7,"existing_chamber_tie_in_count":1,"existing_chamber_tie_in_cost":5000000.0,"unconnected_penalty":0.0,"calculated_cost":3.0797490277E8,"new_network_length":2304.609,"score":15.537124,"unconnected_oks_ids":[]}},{"type":"Feature","geometry":{"type":"LineString","coordinates":[[37.63926012,55.69820445],[37.63886229,55.69810389]]},"properties":{"id":"v3-seg-1","object_type":"heat_network","variant_id":"3","start_node_id":"v3-ch-1","end_node_id":"v3-node-1","flow_tph":27.82,"diameter":125,"length":27.398,"laying_method":"base","depth_start":null,"depth_end":null,"cost":2665140.45}},{"type":"Feature","geometry":{"type":"LineString","coordinates":[[37.63886229,55.69810389],[37.6388042,55.69808921]]},"properties":{"id":"v3-seg-2","object_type":"heat_network","variant_id":"3","start_node_id":"v3-node-1","end_node_id":"v3-node-2","flow_tph":27.82,"diameter":125,"length":4.0,"laying_method":"special","depth_start":null,"depth_end":null,"cost":408555.0}},{"type":"Feature","geometry":{"type":"LineString","coordinates":[[37.6388042,55.69808921],[37.63877608,55.6980821]]},"properties":{"id":"v3-seg-3","object_type":"heat_network","variant_id":"3","start_node_id":"v3-node-2","end_node_id":"v3-node-3","flow_tph":27.82,"diameter":125,"length":1.937,"laying_method":"base","depth_start":null,"depth_end":null,"cost":188421.68}},{"type":"Feature","geometry":{"type":"LineString","coordinates":[[37.63877608,55.6980821],[37.638718,55.69806742]]},"properties":{"id":"v3-seg-4","object_type":"heat_network","variant_id":"3","start_node_id":"v3-node-3","end_node_id":"v3-node-4","flow_tph":27.82,"diameter":125,"length":4.0,"laying_method":"special","depth_start":null,"depth_end":null,"cost":408555.0}},{"type":"Feature","geometry":{"type":"LineString","coordinates":[[37.638718,55.69806742],[37.63853677,55.69802161],[37.6382803,55.69795679]]},"properties":{"id":"v3-seg-5","object_type":"heat_network","variant_id":"3","start_node_id":"v3-node-4","end_node_id":7,"flow_tph":27.82,"diameter":125,"length":30.143,"laying_method":"base","depth_start":null,"depth_end":null,"cost":2932160.33}},{"type":"Feature","geometry":{"type":"LineString","coordinates":[[37.63973105,55.69889938],[37.6404814,55.69874693],[37.64071544,55.6984662],[37.64076447,55.69840739]]},"properties":{"id":"v3-seg-6","object_type":"heat_network","variant_id":"3","start_node_id":"v3-ch-2","end_node_id":16,"flow_tph":76.27,"diameter":200,"length":91.895,"laying_method":"base","depth_start":null,"depth_end":null,"cost":1.105267113E7}},{"type":"Feature","geometry":{"type":"LineString","coordinates":[[37.63810674,55.69716156],[37.63889716,55.69698993],[37.63953815,55.69685183]]},"properties":{"id":"v3-seg-7","object_type":"heat_network","variant_id":"3","start_node_id":"v3-ch-3","end_node_id":17,"flow_tph":20.63,"diameter":100,"length":96.357,"laying_method":"base","depth_start":null,"depth_end":null,"cost":8647848.04}},{"type":"Feature","geometry":{"type":"LineString","coordinates":[[37.63838522,55.69751764],[37.63734337,55.69774226],[37.63721615,55.69771011],[37.63711036,55.69755361],[37.63629188,55.69734677],[37.63609324,55.69729657]]},"properties":{"id":"v3-seg-8","object_type":"heat_network","variant_id":"3","start_node_id":"v3-ch-4","end_node_id":10,"flow_tph":33.14,"diameter":125,"length":167.552,"laying_method":"base","depth_start":null,"depth_end":null,"cost":1.62986208E7}},{"type":"Feature","geometry":{"type":"LineString","coordinates":[[37.63846184,55.69763853],[37.63504857,55.69837202],[37.63486957,55.69832665],[37.63428369,55.69745698],[37.6343786,55.69733754],[37.63444627,55.69725239]]},"properties":{"id":"v3-seg-9","object_type":"heat_network","variant_id":"3","start_node_id":106,"end_node_id":9,"flow_tph":34.53,"diameter":125,"length":370.419,"laying_method":"base","depth_start":null,"depth_end":null,"cost":3.603250823E7}},{"type":"Feature","geometry":{"type":"LineString","coordinates":[[37.63846184,55.69763853],[37.63829527,55.69784835],[37.63555807,55.69843712],[37.63551273,55.69849423],[37.63541706,55.69861473]]},"properties":{"id":"v3-seg-10","object_type":"heat_network","variant_id":"3","start_node_id":106,"end_node_id":5,"flow_tph":26.09,"diameter":125,"length":231.372,"laying_method":"base","depth_start":null,"depth_end":null,"cost":2.25067113E7}},{"type":"Feature","geometry":{"type":"LineString","coordinates":[[37.63989994,55.69976592],[37.63866044,55.70001958],[37.6379554,55.69983322],[37.63638185,55.7001552]]},"properties":{"id":"v3-seg-11","object_type":"heat_network","variant_id":"3","start_node_id":"v3-ch-5","end_node_id":4,"flow_tph":47.7,"diameter":150,"length":236.996,"laying_method":"base","depth_start":null,"depth_end":null,"cost":2.500473697E7}},{"type":"Feature","geometry":{"type":"LineString","coordinates":[[37.63661709,55.69505764],[37.63244399,55.69595439],[37.63222629,55.69622834],[37.63243882,55.69654386],[37.6332687,55.69675422],[37.63375244,55.69747233]]},"properties":{"id":"v3-seg-12","object_type":"heat_network","variant_id":"3","start_node_id":"v3-ch-6","end_node_id":14,"flow_tph":19.73,"diameter":125,"length":494.37,"laying_method":"base","depth_start":null,"depth_end":null,"cost":4.808984175E7}},{"type":"Feature","geometry":{"type":"LineString","coordinates":[[37.63655859,55.69497149],[37.63250546,55.69584248],[37.63201798,55.69645592],[37.63231768,55.69690083],[37.63287411,55.69771763],[37.63341928,55.69760049],[37.63383502,55.69770587],[37.63390106,55.69772261]]},"properties":{"id":"v3-seg-13","object_type":"heat_network","variant_id":"3","start_node_id":112,"end_node_id":13,"flow_tph":19.77,"diameter":150,"length":567.7,"laying_method":"base","depth_start":null,"depth_end":null,"cost":5.98963239E7}},{"type":"Feature","geometry":{"type":"LineString","coordinates":[[37.63992393,55.69980784],[37.63650939,55.70052792],[37.63620221,55.70044877],[37.6355473,55.69945936],[37.63507971,55.69933888],[37.6344054,55.69948106]]},"properties":{"id":"v3-seg-14","object_type":"heat_network","variant_id":"3","start_node_id":"v3-ch-7","end_node_id":1,"flow_tph":24.87,"diameter":125,"length":445.435,"laying_method":"base","depth_start":null,"depth_end":null,"cost":4.332968963E7}},{"type":"Feature","geometry":{"type":"LineString","coordinates":[[37.64002954,55.69994497],[37.63996813,55.7000204],[37.63587456,55.7008759],[37.63492576,55.70062952],[37.63448974,55.69996891],[37.63458293,55.69985446]]},"properties":{"id":"v3-seg-15","object_type":"heat_network","variant_id":"3","start_node_id":108,"end_node_id":2,"flow_tph":18.76,"diameter":125,"length":441.723,"laying_method":"base","depth_start":null,"depth_end":null,"cost":4.296860483E7}},{"type":"Feature","geometry":{"type":"LineString","coordinates":[[37.63655859,55.69497149],[37.63650404,55.69495765],[37.63250058,55.69581661],[37.63188007,55.69659636],[37.63211456,55.69694502],[37.63205743,55.6970168],[37.63203444,55.69704569]]},"properties":{"id":"v3-seg-16","object_type":"heat_network","variant_id":"3","start_node_id":112,"end_node_id":15,"flow_tph":31.89,"diameter":125,"length":421.923,"laying_method":"base","depth_start":null,"depth_end":null,"cost":4.104255983E7}},{"type":"Feature","geometry":{"type":"LineString","coordinates":[[37.64063401,55.69993521],[37.63601793,55.70092754],[37.63483659,55.70062825],[37.63358026,55.69876479],[37.63317056,55.69866098],[37.63313932,55.69865307]]},"properties":{"id":"v3-seg-17","object_type":"heat_network","variant_id":"3","start_node_id":"v3-ch-8","end_node_id":12,"flow_tph":40.0,"diameter":150,"length":644.147,"laying_method":"base","depth_start":null,"depth_end":null,"cost":6.796201753E7}},{"type":"Feature","geometry":{"type":"LineString","coordinates":[[37.64142423,55.70115213],[37.63784418,55.70190756],[37.63736887,55.70178516],[37.6370985,55.70137652],[37.63467638,55.70075276],[37.63403961,55.69979017],[37.63335858,55.69961476],[37.6332045,55.69957508]]},"properties":{"id":"v3-seg-18","object_type":"heat_network","variant_id":"3","start_node_id":"v3-ch-9","end_node_id":11,"flow_tph":4.08,"diameter":150,"length":660.989,"laying_method":"base","depth_start":null,"depth_end":null,"cost":6.973896642E7}},{"type":"Feature","geometry":{"type":"LineString","coordinates":[[37.64146502,55.70120861],[37.63782755,55.70192596],[37.63734903,55.70179561],[37.6366751,55.7019285],[37.63511409,55.70150325],[37.63465654,55.7007632],[37.63383345,55.70092549],[37.63312974,55.70073376],[37.6328466,55.70027576]]},"properties":{"id":"v3-seg-19","object_type":"heat_network","variant_id":"3","start_node_id":"v3-ch-10","end_node_id":3,"flow_tph":29.42,"diameter":150,"length":674.505,"laying_method":"base","depth_start":null,"depth_end":null,"cost":7.116499904E7}},{"type":"Feature","geometry":{"type":"LineString","coordinates":[[37.63615051,55.69387688],[37.63564457,55.69374103],[37.63094794,55.69468417],[37.63083381,55.69481974],[37.63160961,55.69605228],[37.63020351,55.69772245],[37.6305153,55.6982178],[37.63079184,55.69829206],[37.6310112,55.69824802],[37.63208788,55.6999584],[37.63203963,55.70001571],[37.63201223,55.70004826]]},"properties":{"id":"v3-seg-20","object_type":"heat_network","variant_id":"3","start_node_id":"v3-ch-11","end_node_id":6,"flow_tph":15.99,"diameter":200,"length":1022.227,"laying_method":"base","depth_start":null,"depth_end":null,"cost":1.2294835243E8}},{"type":"Feature","geometry":{"type":"LineString","coordinates":[[37.64148932,55.70124226],[37.6375425,55.70199488],[37.63708068,55.70186574],[37.63664935,55.70194798],[37.63499932,55.70148656],[37.63473158,55.7010387],[37.63415777,55.70087823],[37.63356992,55.7009903],[37.63253612,55.70070117],[37.63232548,55.70034878],[37.63225563,55.70032924],[37.63220263,55.70031442]]},"properties":{"id":"v3-seg-21","object_type":"heat_network","variant_id":"3","start_node_id":"v3-ch-12","end_node_id":8,"flow_tph":18.03,"diameter":150,"length":692.944,"laying_method":"base","depth_start":null,"depth_end":null,"cost":7.311044261E7}},{"type":"Feature","geometry":{"type":"Point","coordinates":[37.63926012,55.69820445]},"properties":{"id":"v3-ch-1","object_type":"heat_chamber","variant_id":"3","diameter":400,"cost":5000000.0}},{"type":"Feature","geometry":{"type":"Point","coordinates":[37.63973105,55.69889938]},"properties":{"id":"v3-ch-2","object_type":"heat_chamber","variant_id":"3","diameter":400,"cost":5000000.0}},{"type":"Feature","geometry":{"type":"Point","coordinates":[37.63810674,55.69716156]},"properties":{"id":"v3-ch-3","object_type":"heat_chamber","variant_id":"3","diameter":400,"cost":5000000.0}},{"type":"Feature","geometry":{"type":"Point","coordinates":[37.63838522,55.69751764]},"properties":{"id":"v3-ch-4","object_type":"heat_chamber","variant_id":"3","diameter":400,"cost":5000000.0}},{"type":"Feature","geometry":{"type":"Point","coordinates":[37.63989994,55.69976592]},"properties":{"id":"v3-ch-5","object_type":"heat_chamber","variant_id":"3","diameter":400,"cost":5000000.0}},{"type":"Feature","geometry":{"type":"Point","coordinates":[37.63661709,55.69505764]},"properties":{"id":"v3-ch-6","object_type":"heat_chamber","variant_id":"3","diameter":400,"cost":5000000.0}},{"type":"Feature","geometry":{"type":"Point","coordinates":[37.63992393,55.69980784]},"properties":{"id":"v3-ch-7","object_type":"heat_chamber","variant_id":"3","diameter":400,"cost":5000000.0}},{"type":"Feature","geometry":{"type":"Point","coordinates":[37.64063401,55.69993521]},"properties":{"id":"v3-ch-8","object_type":"heat_chamber","variant_id":"3","diameter":400,"cost":5000000.0}},{"type":"Feature","geometry":{"type":"Point","coordinates":[37.64142423,55.70115213]},"properties":{"id":"v3-ch-9","object_type":"heat_chamber","variant_id":"3","diameter":500,"cost":5000000.0}},{"type":"Feature","geometry":{"type":"Point","coordinates":[37.64146502,55.70120861]},"properties":{"id":"v3-ch-10","object_type":"heat_chamber","variant_id":"3","diameter":500,"cost":5000000.0}},{"type":"Feature","geometry":{"type":"Point","coordinates":[37.63615051,55.69387688]},"properties":{"id":"v3-ch-11","object_type":"heat_chamber","variant_id":"3","diameter":400,"cost":5000000.0}},{"type":"Feature","geometry":{"type":"Point","coordinates":[37.64148932,55.70124226]},"properties":{"id":"v3-ch-12","object_type":"heat_chamber","variant_id":"3","diameter":500,"cost":5000000.0}},{"type":"Feature","geometry":{"type":"Point","coordinates":[37.63886229,55.69810389]},"properties":{"id":"v3-node-1","object_type":"technical_node","variant_id":"3"}},{"type":"Feature","geometry":{"type":"Point","coordinates":[37.6388042,55.69808921]},"properties":{"id":"v3-node-2","object_type":"technical_node","variant_id":"3"}},{"type":"Feature","geometry":{"type":"Point","coordinates":[37.63877608,55.6980821]},"properties":{"id":"v3-node-3","object_type":"technical_node","variant_id":"3"}},{"type":"Feature","geometry":{"type":"Point","coordinates":[37.638718,55.69806742]},"properties":{"id":"v3-node-4","object_type":"technical_node","variant_id":"3"}},{"type":"Feature","geometry":null,"properties":{"id":"v3-summary","object_type":"variant_summary","variant_id":"3","rank":3,"construction_cost":8.513977269E8,"chamber_construction_cost":6.0E7,"existing_chamber_tie_in_count":5,"existing_chamber_tie_in_cost":2.5E7,"unconnected_penalty":0.0,"calculated_cost":8.513977269E8,"new_network_length":7328.032,"score":45.823232,"unconnected_oks_ids":[]}}]}